0 COSMOS 1655
1 15751U 85041A   13282.84987432  .00000038  00000-0  25165-4 0  5088
2 15751 082.9495 236.8156 0026369 355.6069 061.0507 13.71608294419744
0 COSMOS 1655
1 15751U 85041A   13284.17654277  .00000033  00000-0  19625-4 0  5094
2 15751 082.9498 235.8393 0026278 351.8413 131.9459 13.71608506419928
0 COSMOS 1655
1 15751U 85041A   13285.49247772  .00000022  00000-0  78379-5 0  5100
2 15751 082.9501 234.8709 0026192 348.1334 149.8134 13.71608673420104
0 COSMOS 1655
1 15751U 85041A   13286.86087850  .00000027  00000-0  13038-4 0  5117
2 15751 082.9504 233.8639 0026111 344.3667 066.6602 13.71608629420293
0 COSMOS 1655
1 15751U 85041A   13288.04162001  .00000040  00000-0  27322-4 0  5128
2 15751 082.9506 232.9951 0026037 341.0034 137.0031 13.71608590420455
0 COSMOS 1655
1 15751U 85041A   13289.13887869  .00000048  00000-0  36983-4 0  5137
2 15751 082.9508 232.1877 0025976 337.8232 155.1741 13.71608446420606
0 COSMOS 1655
1 15751U 85041A   13290.45173897  .00000066  00000-0  56473-4 0  5140
2 15751 082.9509 231.2219 0025908 334.0210 157.9637 13.71608563420780
0 COSMOS 1655
1 15751U 85041A   13292.20302510  .00000075  00000-0  66600-4 0  5155
2 15751 082.9510 229.9336 0025802 329.0506 165.5609 13.71608574421025
0 COSMOS 1655
1 15751U 85041A   13293.44325972  .00000067  00000-0  57834-4 0  5160
2 15751 082.9509 229.0213 0025737 325.4850 169.7047 13.71608775421190
0 COSMOS 1655
1 15751U 85041A   13294.80764193  .00000067  00000-0  57789-4 0  5173
2 15751 082.9510 228.0177 0025674 321.5448 066.8946 13.71609039421380
0 COSMOS 1655
1 15751U 85041A   13296.21029801  .00000056  00000-0  45363-4 0  5184
2 15751 082.9511 226.9859 0025640 317.4407 153.1316 13.71609318421579
